{
  "norad_id": 43255,
  "name": "IRIDIUM 148",
  "history": [
    {
      "epoch": "2026-03-28T16:46:07.407840Z",
      "apogee_km": 779.2317831175533,
      "perigee_km": 776.0998313448836,
      "latitude_deg": 3.294453698236107e-06,
      "longitude_deg": -113.51316868187104,
      "height_km": 780.6120084627888,
      "semi_major_axis_km": 7155.802807231218,
      "eccentricity": 0.00021884,
      "inclination_deg": 86.3981,
      "raan_deg": 324.1331,
      "arg_perigee_deg": 86.2974,
      "mean_anomaly_deg": 273.8472,
      "mean_motion_rev_day": 14.34218155
    },
    {
      "epoch": "2026-03-29T04:29:23.396640Z",
      "apogee_km": 779.2231929987347,
      "perigee_km": 776.1075566447362,
      "latitude_deg": -6.53256026616533e-05,
      "longitude_deg": 69.98473819838752,
      "height_km": 780.6109026003662,
      "semi_major_axis_km": 7155.802374821735,
      "eccentricity": 0.0002177,
      "inclination_deg": 86.3981,
      "raan_deg": 323.929,
      "arg_perigee_deg": 86.252,
      "mean_anomaly_deg": 273.8924,
      "mean_motion_rev_day": 14.34218285
    },
    {
      "epoch": "2026-03-30T02:15:27.400032Z",
      "apogee_km": 779.2306748426181,
      "perigee_km": 776.1007267412915,
      "latitude_deg": 2.5580746323907676e-05,
      "longitude_deg": 102.19489270600539,
      "height_km": 780.60632951708,
      "semi_major_axis_km": 7155.8027007919545,
      "eccentricity": 0.0002187,
      "inclination_deg": 86.3979,
      "raan_deg": 323.5498,
      "arg_perigee_deg": 86.0907,
      "mean_anomaly_deg": 274.0539,
      "mean_motion_rev_day": 14.34218187
    },
    {
      "epoch": "2026-03-30T13:58:43.394880Z",
      "apogee_km": 779.2280688110677,
      "perigee_km": 776.1032729007584,
      "latitude_deg": -3.2006072655663236e-05,
      "longitude_deg": -74.30712440536406,
      "height_km": 780.6051672261164,
      "semi_major_axis_km": 7155.802670855913,
      "eccentricity": 0.00021834,
      "inclination_deg": 86.3978,
      "raan_deg": 323.3458,
      "arg_perigee_deg": 86.0421,
      "mean_anomaly_deg": 274.1024,
      "mean_motion_rev_day": 14.34218196
    },
    {
      "epoch": "2026-03-30T22:21:03.403296Z",
      "apogee_km": 779.2342509381315,
      "perigee_km": 776.0978624583813,
      "latitude_deg": 7.720209666242852e-05,
      "longitude_deg": 159.6198793909089,
      "height_km": 780.6039414051944,
      "semi_major_axis_km": 7155.803056698256,
      "eccentricity": 0.00021915,
      "inclination_deg": 86.398,
      "raan_deg": 323.2,
      "arg_perigee_deg": 85.9988,
      "mean_anomaly_deg": 274.1459,
      "mean_motion_rev_day": 14.3421808
    },
    {
      "epoch": "2026-03-31T21:47:35.375712Z",
      "apogee_km": 779.205965554399,
      "perigee_km": 776.1261079273854,
      "latitude_deg": -5.733085074905375e-05,
      "longitude_deg": 166.61561637830061,
      "height_km": 780.5940059673217,
      "semi_major_axis_km": 7155.803036740892,
      "eccentricity": 0.0002152,
      "inclination_deg": 86.3975,
      "raan_deg": 322.7917,
      "arg_perigee_deg": 85.5521,
      "mean_anomaly_deg": 274.592,
      "mean_motion_rev_day": 14.34218086
    },
    {
      "epoch": "2026-04-01T21:14:07.325664Z",
      "apogee_km": 779.2075467148679,
      "perigee_km": 776.123395849746,
      "latitude_deg": 1.0152620369458582e-05,
      "longitude_deg": 173.61135973812048,
      "height_km": 780.5921232510875,
      "semi_major_axis_km": 7155.802471282307,
      "eccentricity": 0.0002155,
      "inclination_deg": 86.3973,
      "raan_deg": 322.3833,
      "arg_perigee_deg": 85.5099,
      "mean_anomaly_deg": 274.6343,
      "mean_motion_rev_day": 14.34218256
    },
    {
      "epoch": "2026-04-02T20:40:39.152928Z",
      "apogee_km": 779.1968815700839,
      "perigee_km": 776.1241821099129,
      "latitude_deg": 5.011081115643704e-06,
      "longitude_deg": -179.3922893269787,
      "height_km": 780.5849095077431,
      "semi_major_axis_km": 7155.797531839999,
      "eccentricity": 0.0002147,
      "inclination_deg": 86.3971,
      "raan_deg": 321.975,
      "arg_perigee_deg": 85.4075,
      "mean_anomaly_deg": 274.7366,
      "mean_motion_rev_day": 14.34219741
    },
    {
      "epoch": "2026-04-02T22:21:07.139232Z",
      "apogee_km": 779.188118285706,
      "perigee_km": 776.1325928148854,
      "latitude_deg": 4.1911380694630367e-05,
      "longitude_deg": 155.39313659925287,
      "height_km": 780.5856520106604,
      "semi_major_axis_km": 7155.797355550295,
      "eccentricity": 0.0002135,
      "inclination_deg": 86.3971,
      "raan_deg": 321.9458,
      "arg_perigee_deg": 85.4156,
      "mean_anomaly_deg": 274.7284,
      "mean_motion_rev_day": 14.34219794
    },
    {
      "epoch": "2026-04-03T16:46:14.996352Z",
      "apogee_km": 779.1980943065591,
      "perigee_km": 776.1168092156313,
      "latitude_deg": 3.637376053278124e-05,
      "longitude_deg": -121.96693700983424,
      "height_km": 780.5816307374532,
      "semi_major_axis_km": 7155.794451761095,
      "eccentricity": 0.0002153,
      "inclination_deg": 86.3968,
      "raan_deg": 321.6249,
      "arg_perigee_deg": 85.4136,
      "mean_anomaly_deg": 274.7306,
      "mean_motion_rev_day": 14.34220667
    },
    {
      "epoch": "2026-04-04T02:49:02.874432Z",
      "apogee_km": 779.1844291860643,
      "perigee_km": 776.1266159253255,
      "latitude_deg": -7.610671001514125e-05,
      "longitude_deg": 86.74596326256847,
      "height_km": 780.5801572936501,
      "semi_major_axis_km": 7155.792522555695,
      "eccentricity": 0.00021366,
      "inclination_deg": 86.3967,
      "raan_deg": 321.4499,
      "arg_perigee_deg": 85.3937,
      "mean_anomaly_deg": 274.7502,
      "mean_motion_rev_day": 14.34221247
    },
    {
      "epoch": "2026-04-05T13:58:50.507328Z",
      "apogee_km": 779.1830458823915,
      "perigee_km": 776.1217991674348,
      "latitude_deg": -1.0106452043656633e-05,
      "longitude_deg": -82.75920748364307,
      "height_km": 780.582217808582,
      "semi_major_axis_km": 7155.789422524913,
      "eccentricity": 0.0002139,
      "inclination_deg": 86.3964,
      "raan_deg": 320.8373,
      "arg_perigee_deg": 85.5933,
      "mean_anomaly_deg": 274.5507,
      "mean_motion_rev_day": 14.34222179
    },
    {
      "epoch": "2026-04-05T20:40:42.424896Z",
      "apogee_km": 779.1827830554903,
      "perigee_km": 776.1215364529462,
      "latitude_deg": -1.2323525629143517e-05,
      "longitude_deg": 176.38280165878732,
      "height_km": 780.5837242074439,
      "semi_major_axis_km": 7155.7891597542175,
      "eccentricity": 0.0002139,
      "inclination_deg": 86.3964,
      "raan_deg": 320.7207,
      "arg_perigee_deg": 85.6597,
      "mean_anomaly_deg": 274.4843,
      "mean_motion_rev_day": 14.34222258
    },
    {
      "epoch": "2026-04-06T03:22:34.342464Z",
      "apogee_km": 779.1799908960129,
      "perigee_km": 776.1230380426323,
      "latitude_deg": 2.255195364251167e-05,
      "longitude_deg": 75.52471302769472,
      "height_km": 780.582858581341,
      "semi_major_axis_km": 7155.788514469323,
      "eccentricity": 0.0002136,
      "inclination_deg": 86.3964,
      "raan_deg": 320.604,
      "arg_perigee_deg": 85.6453,
      "mean_anomaly_deg": 274.4987,
      "mean_motion_rev_day": 14.34222452
    },
    {
      "epoch": "2026-04-07T21:14:13.788384Z",
      "apogee_km": 779.1775722255352,
      "perigee_km": 776.1206204051896,
      "latitude_deg": 2.052871964586174e-05,
      "longitude_deg": 165.16188175002725,
      "height_km": 780.582063120938,
      "semi_major_axis_km": 7155.786096315363,
      "eccentricity": 0.0002136,
      "inclination_deg": 86.3961,
      "raan_deg": 319.8747,
      "arg_perigee_deg": 85.7064,
      "mean_anomaly_deg": 274.4376,
      "mean_motion_rev_day": 14.34223179
    },
    {
      "epoch": "2026-04-08T13:58:53.548608Z",
      "apogee_km": 779.1732624693032,
      "perigee_km": 776.1231805764819,
      "latitude_deg": -2.6754751180827574e-05,
      "longitude_deg": -86.98325811144653,
      "height_km": 780.5830438841382,
      "semi_major_axis_km": 7155.785221522892,
      "eccentricity": 0.00021312,
      "inclination_deg": 86.3959,
      "raan_deg": 319.5829,
      "arg_perigee_deg": 85.7661,
      "mean_anomaly_deg": 274.3778,
      "mean_motion_rev_day": 14.34223442
    },
    {
      "epoch": "2026-04-09T13:25:26.012640Z",
      "apogee_km": 779.2305548940549,
      "perigee_km": 776.1349472697384,
      "latitude_deg": -3.209179627676795e-05,
      "longitude_deg": -79.98977131279503,
      "height_km": 780.5754951918484,
      "semi_major_axis_km": 7155.819751081896,
      "eccentricity": 0.0002163,
      "inclination_deg": 86.3957,
      "raan_deg": 319.1744,
      "arg_perigee_deg": 84.2677,
      "mean_anomaly_deg": 275.8765,
      "mean_motion_rev_day": 14.34213061
    },
    {
      "epoch": "2026-04-10T12:51:58.258080Z",
      "apogee_km": 779.2353383016552,
      "perigee_km": 776.126850921356,
      "latitude_deg": -4.3357127095474693e-05,
      "longitude_deg": -72.99537123662755,
      "height_km": 780.5785334103575,
      "semi_major_axis_km": 7155.818094611505,
      "eccentricity": 0.0002172,
      "inclination_deg": 86.3956,
      "raan_deg": 318.7659,
      "arg_perigee_deg": 84.466,
      "mean_anomaly_deg": 275.6783,
      "mean_motion_rev_day": 14.34213559
    },
    {
      "epoch": "2026-04-11T20:40:50.562048Z",
      "apogee_km": 779.2304395875708,
      "perigee_km": 776.1291085976791,
      "latitude_deg": 1.6758257332110327e-05,
      "longitude_deg": 167.92572060833066,
      "height_km": 780.5757628761414,
      "semi_major_axis_km": 7155.816774092625,
      "eccentricity": 0.0002167,
      "inclination_deg": 86.3955,
      "raan_deg": 318.2115,
      "arg_perigee_deg": 84.3994,
      "mean_anomaly_deg": 275.7449,
      "mean_motion_rev_day": 14.34213956
    }
  ]
}